NORAD_CAT_ID,OBJECT_NAME,OBJECT_TYPE,EPOCH,MEAN_MOTION,ECCENTRICITY,INCLINATION,RA_OF_ASC_NODE,ARG_OF_PERICENTER,MEAN_ANOMALY,BSTAR,MEAN_MOTION_DOT,MEAN_MOTION_DDOT,TLE_LINE0,TLE_LINE1,TLE_LINE2,SEMIMAJOR_AXIS,PERIOD,APOGEE,PERIGEE,DECAYED
54176.0,STARLINK-5154,PAYLOAD,2023-07-30 17:16:59,15.08848967,7.96e-05,53.2173,322.0194,100.8084,259.2998,0.0003533,5.341e-05,0.0,0 STARLINK-5154,1 54176U 22141V   23211.72013369  .00005341  00000-0  35330-3 0  9993,2 54176  53.2173 322.0194 0000796 100.8084 259.2998 15.08848967 41993,6917.853,95.437,540.269,539.167,0.0
54176.0,STARLINK-5154,PAYLOAD,2023-07-31 10:46:14,15.08840857,9.13e-05,53.2171,318.7499,90.9925,269.1172,6.0498e-05,6.75e-06,0.0,0 STARLINK-5154,1 54176U 22141V   23212.44877660  .00000675  00000-0  60498-4 0  9994,2 54176  53.2171 318.7499 0000913  90.9925 269.1172 15.08840857 42103,6917.878,95.438,540.374,539.111,0.0
54176.0,STARLINK-5154,PAYLOAD,2023-08-01 13:47:47,15.08841406,0.0001034,53.2175,313.6942,98.4769,261.634,0.00015302,2.148e-05,0.0,0 STARLINK-5154,1 54176U 22141V   23213.57485783  .00002148  00000-0  15302-3 0  9990,2 54176  53.2175 313.6942 0001034  98.4769 261.6340 15.08841406 42271,6917.876,95.437,540.456,539.026,0.0
54176.0,STARLINK-5154,PAYLOAD,2023-08-02 07:17:02,15.0883621,9.52e-05,53.2174,310.4238,84.8836,275.2264,-1.1169e-05,-4.65e-06,0.0,0 STARLINK-5154,1 54176U 22141V   23214.30350179 -.00000465  00000-0 -11169-4 0  9992,2 54176  53.2174 310.4238 0000952  84.8836 275.2264 15.08836210 42380,6917.892,95.438,540.416,539.098,0.0
54176.0,STARLINK-5154,PAYLOAD,2023-08-02 16:49:20,15.08849343,9.03e-05,53.2172,308.639,86.6726,273.4369,0.000156,2.196e-05,0.0,0 STARLINK-5154,1 54176U 22141V   23214.70093416  .00002196  00000-0  15600-3 0  9998,2 54176  53.2172 308.6390 0000903  86.6726 273.4369 15.08849343 42444,6917.852,95.437,540.342,539.092,0.0
54176.0,STARLINK-5154,PAYLOAD,2023-08-03 10:18:35,15.08839627,0.0001002,53.2179,305.3678,93.1559,266.9548,8.3519e-05,1.042e-05,0.0,0 STARLINK-5154,1 54176U 22141V   23215.42958029  .00001042  00000-0  83519-4 0  9992,2 54176  53.2179 305.3678 0001002  93.1559 266.9548 15.08839627 42554,6917.882,95.438,540.44,539.053,0.0
54176.0,STARLINK-5154,PAYLOAD,2023-08-04 10:09:23,15.08835701,0.0001139,53.2166,300.8998,58.0306,302.0797,-5.808e-05,-1.212e-05,0.0,0 STARLINK-5154,1 54176U 22141V   23216.42318718 -.00001212  00000-0 -58080-4 0  9994,2 54176  53.2166 300.8998 0001139  58.0306 302.0797 15.08835701 42700,6917.894,95.438,540.546,538.971,0.0
54176.0,STARLINK-5154,PAYLOAD,2023-08-05 10:00:09,15.08844277,0.0001095,53.2166,296.4448,75.5646,284.5468,0.00047275,7.245e-05,0.0,0 STARLINK-5154,1 54176U 22141V   23217.41678146  .00007245  00000-0  47275-3 0  9991,2 54176  53.2166 296.4448 0001095  75.5646 284.5468 15.08844277 42855,6917.867,95.437,540.49,538.975,0.0
54176.0,STARLINK-5154,PAYLOAD,2023-08-06 11:26:20,15.08836293,0.0001013,53.215,291.6883,95.5934,264.5174,-1.9912e-05,-6.05e-06,0.0,0 STARLINK-5154,1 54176U 22141V   23218.47662462 -.00000605  00000-0 -19912-4 0  9995,2 54176  53.2150 291.6883 0001013  95.5934 264.5174 15.08836293 43010,6917.892,95.438,540.458,539.056,0.0
54176.0,STARLINK-5154,PAYLOAD,2023-08-07 16:03:17,15.08843762,0.0001101,53.2156,286.3362,89.998,270.1138,0.00035927,5.435e-05,0.0,0 STARLINK-5154,1 54176U 22141V   23219.66894748  .00005435  00000-0  35927-3 0  9998,2 54176  53.2156 286.3362 0001101  89.9980 270.1138 15.08843762 43196,6917.869,95.437,540.496,538.972,0.0
54176.0,STARLINK-5154,PAYLOAD,2023-08-08 11:07:54,15.08845484,0.0001085,53.2159,282.7685,85.4867,274.6249,0.00034064,5.138e-05,0.0,0 STARLINK-5154,1 54176U 22141V   23220.46382869  .00005138  00000-0  34064-3 0  9995,2 54176  53.2159 282.7685 0001085  85.4867 274.6249 15.08845484 43312,6917.864,95.437,540.479,538.978,0.0
54176.0,STARLINK-5154,PAYLOAD,2023-08-08 20:40:13,15.08837131,5.71e-05,53.2161,280.9841,172.663,187.437,-6.0111e-06,-3.83e-06,0.0,0 STARLINK-5154,1 54176U 22141V   23220.86126635 -.00000383  00000-0 -60111-5 0  9999,2 54176  53.2161 280.9841 0000571 172.6630 187.4370 15.08837131 43377,6917.889,95.438,540.149,539.359,0.0
54176.0,STARLINK-5154,PAYLOAD,2023-08-10 02:52:33,15.0884348,0.0001055,53.2154,275.3349,89.2756,270.8357,0.00026717,3.967e-05,0.0,0 STARLINK-5154,1 54176U 22141V   23222.11983072  .00003967  00000-0  26717-3 0  9996,2 54176  53.2154 275.3349 0001055  89.2756 270.8357 15.08843480 43567,6917.87,95.437,540.465,539.005,0.0
54176.0,STARLINK-5154,PAYLOAD,2023-08-11 09:04:52,15.08842037,0.0001066,53.2145,269.6838,85.5224,274.589,0.00014146,1.964e-05,0.0,0 STARLINK-5154,1 54176U 22141V   23223.37839113  .00001964  00000-0  14146-3 0  9999,2 54176  53.2145 269.6838 0001066  85.5224 274.5890 15.08842037 43758,6917.874,95.437,540.477,539.002,0.0
54176.0,STARLINK-5154,PAYLOAD,2023-08-12 02:34:07,15.08835294,0.0001213,53.2142,266.4128,74.5334,285.5792,2.1181e-05,4.9e-07,0.0,0 STARLINK-5154,1 54176U 22141V   23224.10703509  .00000049  00000-0  21181-4 0  9991,2 54176  53.2142 266.4128 0001213  74.5334 285.5792 15.08835294 43868,6917.895,95.438,540.599,538.921,0.0
54176.0,STARLINK-5154,PAYLOAD,2023-08-13 13:32:36,15.0884412,0.0001103,53.2144,259.8702,88.6201,271.4917,0.0002262,3.314e-05,0.0,0 STARLINK-5154,1 54176U 22141V   23225.56431450  .00003314  00000-0  22620-3 0  9991,2 54176  53.2144 259.8702 0001103  88.6201 271.4917 15.08844120 44087,6917.868,95.437,540.496,538.97,0.0
54176.0,STARLINK-5154,PAYLOAD,2023-08-15 02:06:28,15.08841464,0.0001326,53.215,253.0296,79.8414,280.2728,8.9395e-05,1.135e-05,0.0,0 STARLINK-5154,1 54176U 22141V   23227.08783485  .00001135  00000-0  89395-4 0  9990,2 54176  53.2150 253.0296 0001326  79.8414 280.2728 15.08841464 44315,6917.876,95.437,540.658,538.824,0.0
54176.0,STARLINK-5154,PAYLOAD,2023-08-16 06:43:25,15.08835964,0.0001263,53.2161,247.6764,93.5003,266.6134,-2.3505e-05,-6.62e-06,0.0,0 STARLINK-5154,1 54176U 22141V   23228.28015930 -.00000662  00000-0 -23505-4 0  9993,2 54176  53.2161 247.6764 0001263  93.5003 266.6134 15.08835964 44499,6917.893,95.438,540.631,538.884,0.0
54176.0,STARLINK-5154,PAYLOAD,2023-08-17 00:12:39,15.08839821,0.0001249,53.2159,244.4053,94.2023,265.9112,7.758e-05,9.47e-06,0.0,0 STARLINK-5154,1 54176U 22141V   23229.00879474  .00000947  00000-0  77580-4 0  9991,2 54176  53.2159 244.4053 0001249  94.2023 265.9112 15.08839821 44603,6917.881,95.438,540.61,538.882,0.0
54176.0,STARLINK-5154,PAYLOAD,2023-08-18 09:35:46,15.08835818,0.0001304,53.2159,238.1611,92.156,267.9582,8.4233e-05,1.053e-05,0.0,0 STARLINK-5154,1 54176U 22141V   23230.39983999  .00001053  00000-0  84233-4 0  9995,2 54176  53.2159 238.1611 0001304  92.1560 267.9582 15.08835818 44816,6917.893,95.438,540.66,538.856,0.0
54176.0,STARLINK-5154,PAYLOAD,2023-08-19 12:37:18,15.08848451,0.0001376,53.2161,233.1057,104.728,255.3865,-2.9968e-06,-3.36e-06,0.0,0 STARLINK-5154,1 54176U 22141V   23231.52591361 -.00000336  00000-0 -29968-5 0  9999,2 54176  53.2161 233.1057 0001376 104.7280 255.3865 15.08848451 44986,6917.855,95.437,540.671,538.768,0.0
54176.0,STARLINK-5154,PAYLOAD,2023-08-20 09:17:20,15.08837068,0.000138,53.2164,229.2395,88.4956,271.6194,5.363e-05,5.66e-06,0.0,0 STARLINK-5154,1 54176U 22141V   23232.38704246  .00000566  00000-0  53630-4 0  9997,2 54176  53.2164 229.2395 0001380  88.4956 271.6194 15.08837068 45117,6917.889,95.438,540.709,538.8,0.0
54176.0,STARLINK-5154,PAYLOAD,2023-08-21 05:57:20,15.08847077,0.0001464,53.2165,225.3736,77.1631,282.9525,8.1667e-05,1.012e-05,0.0,0 STARLINK-5154,1 54176U 22141V   23233.24815575  .00001012  00000-0  81667-4 0  9999,2 54176  53.2165 225.3736 0001464  77.1631 282.9525 15.08847077 45240,6917.859,95.437,540.737,538.711,0.0
54176.0,STARLINK-5154,PAYLOAD,2023-08-22 02:37:21,15.0884245,0.0001481,53.2166,221.5118,76.3408,283.7749,7.3999e-05,8.9e-06,0.0,0 STARLINK-5154,1 54176U 22141V   23234.10927799  .00000890  00000-0  73999-4 0  9999,2 54176  53.2166 221.5118 0001481  76.3408 283.7749 15.08842450 45376,6917.873,95.437,540.762,538.713,0.0
54176.0,STARLINK-5154,PAYLOAD,2023-08-22 10:34:16,15.08849353,0.0001435,53.2166,220.0226,85.4333,274.6823,0.0001376,1.903e-05,0.0,0 STARLINK-5154,1 54176U 22141V   23234.44047043  .00001903  00000-0  13760-3 0  9996,2 54176  53.2166 220.0226 0001435  85.4333 274.6823 15.08849353 45424,6917.852,95.437,540.71,538.724,0.0
54176.0,STARLINK-5154,PAYLOAD,2023-08-23 02:28:09,15.08835148,0.0001527,53.2174,217.0533,67.3385,292.7769,-7.8697e-05,-1.54e-05,0.0,0 STARLINK-5154,1 54176U 22141V   23235.10288762 -.00001540  00000-0 -78697-4 0  9995,2 54176  53.2174 217.0533 0001527  67.3385 292.7769 15.08835148 45526,6917.895,95.438,540.817,538.704,0.0
54176.0,STARLINK-5154,PAYLOAD,2023-08-24 08:40:28,15.08846003,0.0001428,53.2167,211.3989,92.5195,267.5961,7.359e-05,8.84e-06,0.0,0 STARLINK-5154,1 54176U 22141V   23236.36143730  .00000884  00000-0  73590-4 0  9994,2 54176  53.2167 211.3989 0001428  92.5195 267.5961 15.08846003 45716,6917.862,95.437,540.715,538.739,0.0
54176.0,STARLINK-5154,PAYLOAD,2023-08-25 00:34:20,15.08830928,0.0001376,53.2166,208.4258,88.2187,271.8963,7.5762e-05,9.18e-06,0.0,0 STARLINK-5154,1 54176U 22141V   23237.02384891  .00000918  00000-0  75762-4 0  9994,2 54176  53.2166 208.4258 0001376  88.2187 271.8963 15.08830928 45816,6917.908,95.438,540.725,538.821,0.0
54176.0,STARLINK-5154,PAYLOAD,2023-08-25 06:55:52,15.08839213,0.0001352,53.2166,207.2362,89.0953,271.0194,0.00013449,1.853e-05,0.0,0 STARLINK-5154,1 54176U 22141V   23237.28880294  .00001853  00000-0  13449-3 0  9992,2 54176  53.2166 207.2362 0001352  89.0953 271.0194 15.08839213 45851,6917.883,95.438,540.683,538.812,0.0
54176.0,STARLINK-5154,PAYLOAD,2023-08-26 06:46:40,15.08841444,0.0001377,53.2165,202.7753,86.4298,273.6852,2.2452e-05,6.9e-07,0.0,0 STARLINK-5154,1 54176U 22141V   23238.28240743  .00000069  00000-0  22452-4 0  9995,2 54176  53.2165 202.7753 0001377  86.4298 273.6852 15.08841444 46000,6917.876,95.437,540.694,538.788,0.0
